HYSIS                   
1 43719U 18096A   26161.51221699  .00000822  00000+0  11913-3 0  9998
2 43719  97.9840 228.3126 0001756 110.4749 249.6650 14.78682344406438
KAZSTSAT                
1 43783U 18099AB  26161.35929645  .00001182  00000+0  99921-4 0  9996
2 43783  97.4264 193.5983 0008046  87.5315 272.6830 14.99846588410289
SAUDISAT 5A             
1 43831U 18102A   26161.48518119  .00004870  00000+0  18085-3 0  9997
2 43831  97.3074 223.1953 0010541 149.9977 210.1869 15.27977893414658
SAUDISAT 5B             
1 43833U 18102C   26161.50515905  .00004716  00000+0  17379-3 0  9996
2 43833  97.3180 226.2724 0011190 152.4659 207.7175 15.28238694414770
GAOFEN-10R              
1 44622U 19066A   26161.54179012  .00000999  00000+0  12954-3 0  9995
2 44622  98.0495 115.0727 0006232 145.8430 214.3185 14.83046118361398
CARTOSAT-3              
1 44804U 19081A   26161.50510113  .00005350  00000+0  25665-3 0  9990
2 44804  97.4312 223.4794 0012565 170.5567 189.5906 15.19238140362451
GAOFEN-12 01            
1 44819U 19082A   26161.52367894  .00000333  00000+0  50206-4 0  9991
2 44819  97.8106 168.0790 0002440  77.9716 282.1770 14.80453061353108
CSG-1                   
1 44873U 19092A   26161.50281355  .00000357  00000+0  51460-4 0  9996
2 44873  97.8887 345.2022 0001432  91.0958 269.0419 14.82159315350485
NEMO-HD                 
1 46277U 20061F   26161.52147462  .00010373  00000+0  22590-3 0  9996
2 46277  97.1927 223.5419 0002499  88.1719 271.9816 15.44460404320952
SENTINEL-6A             
1 46984U 20086A   26161.29287757 -.00000026  00000+0  15073-3 0  9997
2 46984  66.0387 149.3719 0007945 270.2753  89.7352 12.80929857259447
CAS500-1                
1 47932U 21022A   26161.54640541  .00003591  00000+0  16925-3 0  9990
2 47932  97.3913  56.9339 0004348 332.8668  27.2339 15.20129460289756
GAOFEN-12 02            
1 48079U 21026A   26161.53402498  .00000332  00000+0  50543-4 0  9998
2 48079  97.9920 159.7418 0003367 251.1170 108.9677 14.80290961280779
PLEIADES NEO 3          
1 48268U 21034A   26161.49990446  .00001166  00000+0  15479-3 0  9991
2 48268  97.8927 236.3629 0001397  88.9324 271.2048 14.81673377276665
PLEIADES NEO 4          
1 49070U 21073E   26159.98043271  .00001403  00000+0  18495-3 0  9997
2 49070  97.8928 234.8608 0001396  84.4017 275.7355 14.81666705260151
LANDSAT 9               
1 49260U 21088A   26161.46684507  .00000251  00000+0  65785-4 0  9998
2 49260  98.2279 231.7253 0001464  87.8953 272.2413 14.57105991250020
CSG-2                   
1 51444U 22008A   26161.46905039  .00000486  00000+0  67573-4 0  9991
2 51444  97.8891 345.1643 0001412  87.1312 273.0063 14.82151679235597
GAOFEN-12 03            
1 52912U 22069A   26161.56273814  .00000208  00000+0  34232-4 0  9997
2 52912  97.8289  49.5993 0001800 110.3117 249.8289 14.80021956213639
SWOT                    
1 54754U 22173A   26161.48591181  .00000090  00000+0  62470-4 0  9994
2 54754  77.6111  44.3568 0000239  97.1079 263.0099 14.00168746178212
GAOFEN-12 04            
1 57654U 23123A   26161.51269037  .00000829  00000+0  11579-3 0  9991
2 57654  97.9126  79.6262 0001793  86.2692 273.8725 14.80215708151645
PARS 1                  
1 59065U 24039Q   26161.51686779  .00010021  00000+0  20980-3 0  9993
2 59065  97.4817 142.2270 0011063 131.4197 228.8004 15.45586534127615
RESURS-P 4              
1 59371U 24061A   26161.53606356  .00002903  00000+0  96167-4 0  9994
2 59371  97.2746 109.5507 0001658 131.6068 228.5316 15.32093372122742
LEGION 1                
1 59625U 24081A   26161.49736656  .00003573  00000+0  18604-3 0  9993
2 59625  97.5018 239.4258 0010142  39.6895 320.5079 15.16620242116520
LEGION 2                
1 59626U 24081B   26161.46127580  .00002885  00000+0  15095-3 0  9997
2 59626  97.5017 239.4878 0011431   7.8158 352.3250 15.16599455116524
ALOS-4 (DAICHI-4)       
1 60182U 24123A   26161.53049354  .00001238  00000+0  17261-3 0  9991
2 60182  97.9242 258.7976 0001631  97.2641 262.8756 14.79472782104895
LEGION 3                
1 60452U 24146A   26161.21209483  .00004047  00000+0  22061-3 0  9997
2 60452  45.0015  67.9616 0007004 126.5549 233.5975 15.15986784100966
LEGION 4                
1 60453U 24146B   26161.41282016  .00002723  00000+0  15278-3 0  9994
2 60453  45.0003 158.7964 0014106 273.1168  86.8096 15.15983124 99848
SENTINEL-2C             
1 60989U 24157A   26161.45925522  .00000074  00000+0  44832-4 0  9996
2 60989  98.5691 236.3362 0001141  79.7892 280.3420 14.30815963 92028
IONOSFERA-M 1           
1 61735U 24199A   26161.51282572  .00000048  00000+0  41215-4 0  9993
2 61735  98.7182  34.7553 0001751 119.3385 240.7968 14.22753035126759
IONOSFERA-M 2           
1 61736U 24199B   26161.47681144  .00000029  00000+0  32744-4 0  9993
2 61736  98.7181  34.6303 0001315  44.6921 315.4363 14.22756222129879
PRSC-EO1                
1 62725U 25012A   26161.53256071  .00006125  00000+0  30716-3 0  9990
2 62725  97.4229 234.1222 0004180 282.1359  77.9406 15.17685172 77185
BIOMASS                 
1 63772U 25090A   26161.48799838  .00000944  00000+0  17495-3 0  9998
2 63772  98.0741 348.9022 0001368  91.2144 268.9217 14.67534544 59702
