OBJECT_NAME,OBJECT_ID,EPOCH,MEAN_MOTION,ECCENTRICITY,INCLINATION,RA_OF_ASC_NODE,ARG_OF_PERICENTER,MEAN_ANOMALY,EPHEMERIS_TYPE,CLASSIFICATION_TYPE,NORAD_CAT_ID,ELEMENT_SET_NO,REV_AT_EPOCH,BSTAR,MEAN_MOTION_DOT,MEAN_MOTION_DDOT
HYSIS,2018-096A,2026-06-10T12:17:35.547936,14.78682344,.0001756,97.9840,228.3126,110.4749,249.6650,0,U,43719,999,40643,.11913E-3,.822E-5,0
KAZSTSAT,2018-099AB,2026-06-10T08:37:23.213280,14.99846588,.0008046,97.4264,193.5983,87.5315,272.6830,0,U,43783,999,41028,.99921E-4,.1182E-4,0
SAUDISAT 5A,2018-102A,2026-06-10T11:38:39.654816,15.27977893,.0010541,97.3074,223.1953,149.9977,210.1869,0,U,43831,999,41465,.18085E-3,.487E-4,0
SAUDISAT 5B,2018-102C,2026-06-10T12:07:25.741920,15.28238694,.001119,97.3180,226.2724,152.4659,207.7175,0,U,43833,999,41477,.17379E-3,.4716E-4,0
GAOFEN-10R,2019-066A,2026-06-10T13:00:10.666368,14.83046118,.0006232,98.0495,115.0727,145.8430,214.3185,0,U,44622,999,36139,.12954E-3,.999E-5,0
CARTOSAT-3,2019-081A,2026-06-10T12:07:20.737632,15.19238140,.0012565,97.4312,223.4794,170.5567,189.5906,0,U,44804,999,36245,.25665E-3,.535E-4,0
GAOFEN-12 01,2019-082A,2026-06-10T12:34:05.860416,14.80453061,.000244,97.8106,168.0790,77.9716,282.1770,0,U,44819,999,35310,.50206E-4,.333E-5,0
CSG-1,2019-092A,2026-06-10T12:04:03.090720,14.82159315,.0001432,97.8887,345.2022,91.0958,269.0419,0,U,44873,999,35048,.5146E-4,.357E-5,0
NEMO-HD,2020-061F,2026-06-10T12:30:55.407168,15.44460404,.0002499,97.1927,223.5419,88.1719,271.9816,0,U,46277,999,32095,.2259E-3,.10373E-3,0
SENTINEL-6A,2020-086A,2026-06-10T07:01:44.622048,12.80929857,.0007945,66.0387,149.3719,270.2753,89.7352,0,U,46984,999,25944,.15073E-3,-.26E-6,0
CAS500-1,2021-022A,2026-06-10T13:06:49.427424,15.20129460,.0004348,97.3913,56.9339,332.8668,27.2339,0,U,47932,999,28975,.16925E-3,.3591E-4,0
GAOFEN-12 02,2021-026A,2026-06-10T12:48:59.758272,14.80290961,.0003367,97.9920,159.7418,251.1170,108.9677,0,U,48079,999,28077,.50543E-4,.332E-5,0
PLEIADES NEO 3,2021-034A,2026-06-10T11:59:51.745344,14.81673377,.0001397,97.8927,236.3629,88.9324,271.2048,0,U,48268,999,27666,.15479E-3,.1166E-4,0
PLEIADES NEO 4,2021-073E,2026-06-08T23:31:49.386144,14.81666705,.00013962,97.8928,234.8608,84.4017,275.7355,0,U,49070,999,26015,.18495191E-3,.1403E-4,0
LANDSAT 9,2021-088A,2026-06-10T11:12:15.414048,14.57105991,.0001464,98.2279,231.7253,87.8953,272.2413,0,U,49260,999,25002,.65785E-4,.251E-5,0
CSG-2,2022-008A,2026-06-10T11:15:25.953696,14.82151679,.0001412,97.8891,345.1643,87.1312,273.0063,0,U,51444,999,23559,.67573E-4,.486E-5,0
GAOFEN-12 03,2022-069A,2026-06-10T13:30:20.575296,14.80021956,.00018,97.8289,49.5993,110.3117,249.8289,0,U,52912,999,21363,.34232E-4,.208E-5,0
SWOT,2022-173A,2026-06-10T11:39:42.780384,14.00168746,.0000239,77.6111,44.3568,97.1079,263.0099,0,U,54754,999,17821,.6247E-4,.9E-6,0
GAOFEN-12 04,2023-123A,2026-06-10T12:18:16.447968,14.80215708,.0001793,97.9126,79.6262,86.2692,273.8725,0,U,57654,999,15164,.11579E-3,.829E-5,0
PARS 1,2024-039Q,2026-06-10T12:24:17.377056,15.45586534,.0011063,97.4817,142.2270,131.4197,228.8004,0,U,59065,999,12761,.2098E-3,.10021E-3,0
RESURS-P 4,2024-061A,2026-06-10T12:51:55.891584,15.32093372,.0001658,97.2746,109.5507,131.6068,228.5316,0,U,59371,999,12274,.96167E-4,.2903E-4,0
LEGION 1,2024-081A,2026-06-10T11:56:12.470784,15.16620242,.0010142,97.5018,239.4258,39.6895,320.5079,0,U,59625,999,11652,.18604E-3,.3573E-4,0
LEGION 2,2024-081B,2026-06-10T11:04:14.229120,15.16599455,.0011431,97.5017,239.4878,7.8158,352.3250,0,U,59626,999,11652,.15095E-3,.2885E-4,0
ALOS-4 (DAICHI-4),2024-123A,2026-06-10T12:43:54.641856,14.79472782,.0001631,97.9242,258.7976,97.2641,262.8756,0,U,60182,999,10489,.17261E-3,.1238E-4,0
LEGION 3,2024-146A,2026-06-10T05:05:24.993312,15.15986784,.0007004,45.0015,67.9616,126.5549,233.5975,0,U,60452,999,10096,.22061E-3,.4047E-4,0
LEGION 4,2024-146B,2026-06-10T09:54:27.661824,15.15983124,.0014106,45.0003,158.7964,273.1168,86.8096,0,U,60453,999,9984,.15278E-3,.2723E-4,0
SENTINEL-2C,2024-157A,2026-06-10T11:01:19.651008,14.30815963,.0001141,98.5691,236.3362,79.7892,280.3420,0,U,60989,999,9202,.44832E-4,.74E-6,0
IONOSFERA-M 1,2024-199A,2026-06-10T12:18:28.142208,14.22753035,.0001751,98.7182,34.7553,119.3385,240.7968,0,U,61735,999,12675,.41215E-4,.48E-6,0
IONOSFERA-M 2,2024-199B,2026-06-10T11:26:36.508416,14.22756222,.0001315,98.7181,34.6303,44.6921,315.4363,0,U,61736,999,12987,.32744E-4,.29E-6,0
PRSC-EO1,2025-012A,2026-06-10T12:46:53.245344,15.17685172,.000418,97.4229,234.1222,282.1359,77.9406,0,U,62725,999,7718,.30716E-3,.6125E-4,0
BIOMASS,2025-090A,2026-06-10T11:42:43.060032,14.67534544,.0001368,98.0741,348.9022,91.2144,268.9217,0,U,63772,999,5970,.17495E-3,.944E-5,0
